      2.10          N: GNSS NAV DATA                        RINEX VERSION / TYPE
fic2rin                                 05/31/2019 00:19:41 PGM / RUN BY / DATE
                                                            END OF HEADER
 8 19  5 30  6  0  0.0-1.454777084291e-04-1.477928890381e-12 0.000000000000e+00
    1.870000000000e+02-4.796875000000e+01 4.039453973758e-09 2.579066450550e+00
   -2.497807145119e-06 4.403511877172e-03 9.465962648392e-06 5.153748800278e+03
    3.672000000000e+05-9.313225746155e-09 2.236403702208e+00 3.539025783539e-08
    9.702796012286e-01 2.020937500000e+02-2.229542304815e-01-7.816039855147e-09
   -1.328626771209e-10 1.000000000000e+00 2.055000000000e+03 0.000000000000e+00
    2.400000000000e+00 0.000000000000e+00 5.122274160385e-09 1.870000000000e+02
    3.600000000000e+05 4.000000000000e+00
24 19  5 30  6  0  0.0-6.677396595478e-05-5.684341886081e-13 0.000000000000e+00
    2.600000000000e+01 8.528125000000e+01 5.131285167195e-09 5.032567514637e-01
    4.604458808899e-06 8.296753279865e-03 7.841736078262e-06 5.153718959808e+03
    3.672000000000e+05 7.450580596924e-09 1.040034105595e-01 7.078051567078e-08
    9.390469000326e-01 2.130312500000e+02 6.061080803887e-01-8.499639758398e-09
    7.321733551020e-11 1.000000000000e+00 2.055000000000e+03 0.000000000000e+00
    3.400000000000e+00 0.000000000000e+00 2.793967723846e-09 2.600000000000e+01
    3.600000000000e+05 4.000000000000e+00
22 19  5 30  6  0  0.0-7.090838626027e-04-6.025402399246e-12 0.000000000000e+00
    6.500000000000e+01-3.134375000000e+01 5.773097615546e-09 1.584763942385e+00
   -1.724809408188e-06 7.238569902256e-03 4.524365067482e-06 5.153788745880e+03
    3.672000000000e+05 9.499490261078e-08-2.011393454474e+00-1.620501279831e-07
    9.271394007918e-01 2.765000000000e+02-1.341278427619e+00-8.648574533558e-09
   -1.428630936784e-12 1.000000000000e+00 2.055000000000e+03 0.000000000000e+00
    2.400000000000e+00 0.000000000000e+00-1.816079020500e-08 6.500000000000e+01
    3.600000000000e+05 4.000000000000e+00
25 19  5 30  6  0  0.0-7.611210457981e-04-3.524291969370e-12 0.000000000000e+00
    6.000000000000e+01-1.168750000000e+01 4.472686305338e-09-1.484433241791e+00
   -5.792826414108e-07 8.438851218671e-03 3.127381205559e-06 5.153705780029e+03
    3.672000000000e+05 2.682209014893e-07 1.205683533742e+00-2.235174179077e-08
    9.700518175690e-01 3.245937500000e+02 9.006865576675e-01-8.213913571042e-09
   -2.414386283166e-10 1.000000000000e+00 2.055000000000e+03 0.000000000000e+00
    2.400000000000e+00 0.000000000000e+00 6.053596735001e-09 6.000000000000e+01
    3.600000000000e+05 4.000000000000e+00
30 19  5 30  6  0  0.0-1.141428947449e-04-7.162270776462e-12 0.000000000000e+00
    4.400000000000e+01 8.706250000000e+01 5.020209111860e-09-3.647360067987e-01
    4.308298230171e-06 4.072557319887e-03 6.852671504021e-06 5.153586324692e+03
    3.672000000000e+05 1.303851604462e-07 1.980843481053e-01 1.117587089539e-08
    9.413307755538e-01 2.363750000000e+02-2.962150788442e+00-8.409278851647e-09
    1.075044779930e-10 1.000000000000e+00 2.055000000000e+03 0.000000000000e+00
    2.400000000000e+00 0.000000000000e+00 3.725290298462e-09 4.400000000000e+01
    3.600000000000e+05 4.000000000000e+00
23 19  5 30  6  0  0.0-1.840330660343e-04 1.705302565824e-12 0.000000000000e+00
    7.700000000000e+01-7.125000000000e+00 5.056639200748e-09 1.019422524663e+00
   -1.601874828339e-07 1.327095320448e-02 1.076050102711e-05 5.153581636429e+03
    3.672000000000e+05-1.266598701477e-07-9.107978392773e-01 1.229345798492e-07
    9.431777739973e-01 1.686562500000e+02-2.255669293177e+00-8.356062349252e-09
   -4.103742365913e-10 1.000000000000e+00 2.055000000000e+03 0.000000000000e+00
    2.400000000000e+00 0.000000000000e+00-2.048909664154e-08 7.700000000000e+01
    3.600000000000e+05 4.000000000000e+00
15 19  5 30  6  0  0.0-3.100964240730e-04 2.273736754432e-12 0.000000000000e+00
    4.000000000000e+01-3.959375000000e+01 5.358437486144e-09 1.533371764849e+00
   -1.860782504082e-06 1.132849149872e-02 1.090019941330e-05 5.153700265884e+03
    3.672000000000e+05-2.514570951462e-07-9.857547904723e-01 9.872019290924e-08
    9.278174443036e-01 1.561875000000e+02 7.770903072162e-01-8.461781038574e-09
   -3.860875106660e-10 1.000000000000e+00 2.055000000000e+03 0.000000000000e+00
    2.400000000000e+00 0.000000000000e+00-1.117587089539e-08 4.000000000000e+01
    3.600000000000e+05 4.000000000000e+00
16 19  5 30  6  0  0.0-4.401383921504e-05-2.955857780762e-12 0.000000000000e+00
    9.700000000000e+01-2.362500000000e+01 4.101599419508e-09-2.990970461857e+00
   -1.275911927223e-06 1.079191290773e-02 3.714114427567e-06 5.153580596924e+03
    3.672000000000e+05-5.960464477539e-08 1.288988349001e+00-1.359730958939e-07
    9.829249773307e-01 3.199062500000e+02 5.797991927922e-01-7.954974213749e-09
   -2.235807416067e-10 1.000000000000e+00 2.055000000000e+03 0.000000000000e+00
    3.400000000000e+00 0.000000000000e+00-1.071020960808e-08 9.700000000000e+01
    3.600000000000e+05 4.000000000000e+00
14 19  5 30  6  0  0.0-7.832795381546e-05 1.591615728103e-12 0.000000000000e+00
    8.500000000000e+01-7.562500000000e+00 4.383396871789e-09 2.161455709923e+00
   -5.457550287247e-07 1.066698355135e-02 1.080334186554e-05 5.153711410522e+03
    3.672000000000e+05 2.607703208923e-08-8.128223212208e-01-2.235174179077e-07
    9.604618146326e-01 1.700312500000e+02-1.939325852797e+00-7.749608516587e-09
   -2.789401904071e-10 1.000000000000e+00 2.055000000000e+03 0.000000000000e+00
    3.400000000000e+00 0.000000000000e+00-9.778887033463e-09 8.500000000000e+01
    3.600000000000e+05 4.000000000000e+00
13 19  5 30  6  0  0.0-6.141280755401e-05 1.705302565824e-12 0.000000000000e+00
    5.100000000000e+01 1.875000000000e+00 4.329466053925e-09 1.402338499702e+00
    1.005828380585e-07 3.524697152898e-03 1.171417534351e-05 5.153670070648e+03
    3.672000000000e+05-1.080334186554e-07-7.684076382567e-01-3.352761268616e-08
    9.679269524656e-01 1.571250000000e+02 1.290783323152e+00-7.839255107870e-09
   -2.025084352892e-10 1.000000000000e+00 2.055000000000e+03 0.000000000000e+00
    2.400000000000e+00 0.000000000000e+00-1.117587089539e-08 5.100000000000e+01
    3.600000000000e+05 4.000000000000e+00
19 19  5 30  6  0  0.0-3.128675743937e-04 4.661160346586e-12 0.000000000000e+00
    7.600000000000e+01-4.025000000000e+01 3.735512741957e-09-1.144742240366e+00
   -1.763924956322e-06 9.621652076021e-03 1.085363328457e-05 5.153639972687e+03
    3.672000000000e+05-4.470348358154e-08 2.350221280104e+00 1.918524503708e-07
    9.820278106344e-01 1.816875000000e+02 1.410263207398e+00-7.775681031183e-09
    4.107313943255e-11 1.000000000000e+00 2.055000000000e+03 0.000000000000e+00
    2.400000000000e+00 0.000000000000e+00-1.536682248116e-08 7.600000000000e+01
    3.600000000000e+05 4.000000000000e+00
21 19  5 30  6  0  0.0-1.829992979765e-04 7.389644451905e-12 0.000000000000e+00
    3.900000000000e+01 3.446875000000e+01 4.648765068296e-09-1.605569027880e+00
    2.371147274971e-06 2.456999488641e-02 8.463859558105e-06 5.153733713150e+03
    3.672000000000e+05-4.284083843231e-08-3.044596979045e+00 6.295740604401e-07
    9.488459056863e-01 2.116562500000e+02-1.439432683543e+00-8.115695194138e-09
    5.207359764579e-10 1.000000000000e+00 2.055000000000e+03 0.000000000000e+00
    2.400000000000e+00 0.000000000000e+00-1.024454832077e-08 3.900000000000e+01
    3.600000000000e+05 4.000000000000e+00
18 19  5 30  6  0  0.0 5.765073001385e-05 3.296918293927e-12 0.000000000000e+00
    5.600000000000e+01 2.934375000000e+01 4.761984070036e-09-2.350070955031e-02
    1.385807991028e-06 1.537719776388e-02 8.065253496170e-06 5.153696603775e+03
    3.672000000000e+05-2.309679985046e-07-3.035440402162e+00 1.359730958939e-07
    9.545159113733e-01 2.260625000000e+02 1.391680240337e+00-8.417493479533e-09
    4.857345185067e-10 1.000000000000e+00 2.055000000000e+03 0.000000000000e+00
    2.400000000000e+00 0.000000000000e+00-5.587935447693e-09 5.600000000000e+01
    3.600000000000e+05 4.000000000000e+00
12 19  5 30  6  0  0.0 2.378681674600e-04-3.524291969370e-12 0.000000000000e+00
    7.900000000000e+01-1.815625000000e+01 4.293035965037e-09-1.138935266048e+00
   -9.201467037201e-07 7.642807322554e-03 3.604218363762e-06 5.153635080338e+03
    3.672000000000e+05 1.192092895508e-07 1.270072755331e+00 1.918524503708e-07
    9.825873431526e-01 3.211250000000e+02 1.088093300779e+00-8.209270520497e-09
   -2.925121843066e-10 1.000000000000e+00 2.055000000000e+03 0.000000000000e+00
    2.400000000000e+00 0.000000000000e+00-1.210719347000e-08 7.900000000000e+01
    3.600000000000e+05 4.000000000000e+00
29 19  5 30  6  0  0.0 1.891865395010e-04-9.436007530894e-12 0.000000000000e+00
    6.200000000000e+01-5.809375000000e+01 3.643723204268e-09 2.961501257203e+00
   -2.944841980934e-06 1.101601053961e-03 9.816139936447e-06 5.153752462387e+03
    3.672000000000e+05-6.891787052155e-08 2.315117748873e+00 1.117587089539e-08
    9.856305111927e-01 2.039375000000e+02 1.701342336354e+00-7.592459113540e-09
   -6.393123442110e-11 1.000000000000e+00 2.055000000000e+03 0.000000000000e+00
    2.400000000000e+00 0.000000000000e+00-9.778887033463e-09 6.200000000000e+01
    3.600000000000e+05 4.000000000000e+00
28 19  5 30  6  0  0.0 7.677371613681e-04-1.136868377216e-13 0.000000000000e+00
    3.100000000000e+01-2.825000000000e+01 4.080169955456e-09-3.057039853638e+00
   -1.391395926476e-06 1.903868059162e-02 3.930181264877e-06 5.153700061798e+03
    3.672000000000e+05 2.030283212662e-07 1.292953184690e+00 8.195638656616e-08
    9.818740403892e-01 3.138437500000e+02-1.465933021766e+00-7.727464737066e-09
   -2.882262914962e-10 1.000000000000e+00 2.055000000000e+03 0.000000000000e+00
    2.400000000000e+00 0.000000000000e+00-1.117587089539e-08 3.100000000000e+01
    3.600000000000e+05 4.000000000000e+00
